ATLAS CENTAUR R/B       
1 06155U 72065B   26004.23065698  .00001921  00000+0  26568-3 0  9990
2 06155  35.0032 323.4478 0034070 189.2883 170.7190 14.77482356831729
SL-8 R/B                
1 08459U 75112B   26004.09030832  .00000487  00000+0  16881-3 0  9994
2 08459  74.0609 137.7472 0016691 247.0163 112.9230 14.38163491622582
SEASAT 1                
1 10967U 78064A   26003.88788473  .00000732  00000+0  24315-3 0  9991
2 10967 108.0141 349.5039 0001224 262.5972  97.5034 14.46091310497147
SL-8 R/B                
1 11574U 79089B   26004.30964305  .00000324  00000+0  10610-3 0  9992
2 11574  74.0673 210.2066 0015028  35.6314 324.5842 14.42298895426824
SL-14 R/B               
1 11672U 80005B   26004.09482714  .00001087  00000+0  10767-3 0  9996
2 11672  82.5138   8.4945 0016397  24.3364 335.8626 14.90825782466863
SL-3 R/B                
1 12904U 81103B   26004.23418423  .00007689  00000+0  34929-3 0  9997
2 12904  81.1608 289.0056 0013649 136.8148 223.4156 15.20557663963434
SL-3 R/B                
1 13068U 82013B   26004.27121056  .00005496  00000+0  24262-3 0  9990
2 13068  81.1729 236.2333 0023680  38.7011 321.5911 15.21318638394555
SL-3 R/B                
1 13154U 82039B   26004.24197172  .00004312  00000+0  26363-3 0  9993
2 13154  81.1704 290.2058 0029622 175.9343 184.2129 15.09687675371918
