CCSDS_OMM_VERS = 2.0
CREATION_DATE  = 
ORIGINATOR     = 

OBJECT_NAME    = ATLAS CENTAUR R/B
OBJECT_ID      = 1972-065B
CENTER_NAME    = EARTH
REF_FRAME      = TEME
TIME_SYSTEM    = UTC
MEAN_ELEMENT_THEORY = SGP/SGP4

EPOCH          = 2026-01-04T05:32:08.763072
MEAN_MOTION    = 14.77482356
ECCENTRICITY   = .0034071
INCLINATION    = 35.0032
RA_OF_ASC_NODE = 323.4478
ARG_OF_PERICENTER = 189.2883
MEAN_ANOMALY   = 170.7190

EPHEMERIS_TYPE = 0
CLASSIFICATION_TYPE = U
NORAD_CAT_ID   = 6155
ELEMENT_SET_NO = 999
REV_AT_EPOCH   = 83172
BSTAR          = .26568E-3
MEAN_MOTION_DOT = .1921E-4
MEAN_MOTION_DDOT = 0

CCSDS_OMM_VERS = 2.0
CREATION_DATE  = 
ORIGINATOR     = 

OBJECT_NAME    = SL-8 R/B
OBJECT_ID      = 1975-112B
CENTER_NAME    = EARTH
REF_FRAME      = TEME
TIME_SYSTEM    = UTC
MEAN_ELEMENT_THEORY = SGP/SGP4

EPOCH          = 2026-01-04T02:10:02.638848
MEAN_MOTION    = 14.38163491
ECCENTRICITY   = .00166917
INCLINATION    = 74.0609
RA_OF_ASC_NODE = 137.7472
ARG_OF_PERICENTER = 247.0163
MEAN_ANOMALY   = 112.9230

EPHEMERIS_TYPE = 0
CLASSIFICATION_TYPE = U
NORAD_CAT_ID   = 8459
ELEMENT_SET_NO = 999
REV_AT_EPOCH   = 62258
BSTAR          = .16880561E-3
MEAN_MOTION_DOT = .487E-5
MEAN_MOTION_DDOT = 0

CCSDS_OMM_VERS = 2.0
CREATION_DATE  = 
ORIGINATOR     = 

OBJECT_NAME    = SEASAT 1
OBJECT_ID      = 1978-064A
CENTER_NAME    = EARTH
REF_FRAME      = TEME
TIME_SYSTEM    = UTC
MEAN_ELEMENT_THEORY = SGP/SGP4

EPOCH          = 2026-01-03T21:18:33.240672
MEAN_MOTION    = 14.46091310
ECCENTRICITY   = .0001224
INCLINATION    = 108.0141
RA_OF_ASC_NODE = 349.5039
ARG_OF_PERICENTER = 262.5972
MEAN_ANOMALY   = 97.5034

EPHEMERIS_TYPE = 0
CLASSIFICATION_TYPE = U
NORAD_CAT_ID   = 10967
ELEMENT_SET_NO = 999
REV_AT_EPOCH   = 49714
BSTAR          = .24315E-3
MEAN_MOTION_DOT = .732E-5
MEAN_MOTION_DDOT = 0

CCSDS_OMM_VERS = 2.0
CREATION_DATE  = 
ORIGINATOR     = 

OBJECT_NAME    = SL-8 R/B
OBJECT_ID      = 1979-089B
CENTER_NAME    = EARTH
REF_FRAME      = TEME
TIME_SYSTEM    = UTC
MEAN_ELEMENT_THEORY = SGP/SGP4

EPOCH          = 2026-01-04T07:25:53.159520
MEAN_MOTION    = 14.42298895
ECCENTRICITY   = .00150283
INCLINATION    = 74.0673
RA_OF_ASC_NODE = 210.2066
ARG_OF_PERICENTER = 35.6314
MEAN_ANOMALY   = 324.5842

EPHEMERIS_TYPE = 0
CLASSIFICATION_TYPE = U
NORAD_CAT_ID   = 11574
ELEMENT_SET_NO = 999
REV_AT_EPOCH   = 42682
BSTAR          = .10610081E-3
MEAN_MOTION_DOT = .324E-5
MEAN_MOTION_DDOT = 0

CCSDS_OMM_VERS = 2.0
CREATION_DATE  = 
ORIGINATOR     = 

OBJECT_NAME    = SL-14 R/B
OBJECT_ID      = 1980-005B
CENTER_NAME    = EARTH
REF_FRAME      = TEME
TIME_SYSTEM    = UTC
MEAN_ELEMENT_THEORY = SGP/SGP4

EPOCH          = 2026-01-04T02:16:33.064896
MEAN_MOTION    = 14.90825782
ECCENTRICITY   = .00163973
INCLINATION    = 82.5138
RA_OF_ASC_NODE = 8.4945
ARG_OF_PERICENTER = 24.3364
MEAN_ANOMALY   = 335.8626

EPHEMERIS_TYPE = 0
CLASSIFICATION_TYPE = U
NORAD_CAT_ID   = 11672
ELEMENT_SET_NO = 999
REV_AT_EPOCH   = 46686
BSTAR          = .107672E-3
MEAN_MOTION_DOT = .1087E-4
MEAN_MOTION_DDOT = 0

CCSDS_OMM_VERS = 2.0
CREATION_DATE  = 
ORIGINATOR     = 

OBJECT_NAME    = SL-3 R/B
OBJECT_ID      = 1981-103B
CENTER_NAME    = EARTH
REF_FRAME      = TEME
TIME_SYSTEM    = UTC
MEAN_ELEMENT_THEORY = SGP/SGP4

EPOCH          = 2026-01-04T05:37:13.517472
MEAN_MOTION    = 15.20557663
ECCENTRICITY   = .00136494
INCLINATION    = 81.1608
RA_OF_ASC_NODE = 289.0056
ARG_OF_PERICENTER = 136.8148
MEAN_ANOMALY   = 223.4156

EPHEMERIS_TYPE = 0
CLASSIFICATION_TYPE = U
NORAD_CAT_ID   = 12904
ELEMENT_SET_NO = 999
REV_AT_EPOCH   = 96343
BSTAR          = .34929357E-3
MEAN_MOTION_DOT = .7689E-4
MEAN_MOTION_DDOT = 0

CCSDS_OMM_VERS = 2.0
CREATION_DATE  = 
ORIGINATOR     = 

OBJECT_NAME    = SL-3 R/B
OBJECT_ID      = 1982-013B
CENTER_NAME    = EARTH
REF_FRAME      = TEME
TIME_SYSTEM    = UTC
MEAN_ELEMENT_THEORY = SGP/SGP4

EPOCH          = 2026-01-04T06:30:32.592384
MEAN_MOTION    = 15.21318638
ECCENTRICITY   = .00236801
INCLINATION    = 81.1729
RA_OF_ASC_NODE = 236.2333
ARG_OF_PERICENTER = 38.7011
MEAN_ANOMALY   = 321.5911

EPHEMERIS_TYPE = 0
CLASSIFICATION_TYPE = U
NORAD_CAT_ID   = 13068
ELEMENT_SET_NO = 999
REV_AT_EPOCH   = 39455
BSTAR          = .24262116E-3
MEAN_MOTION_DOT = .5496E-4
MEAN_MOTION_DDOT = 0

CCSDS_OMM_VERS = 2.0
CREATION_DATE  = 
ORIGINATOR     = 

OBJECT_NAME    = SL-3 R/B
OBJECT_ID      = 1982-039B
CENTER_NAME    = EARTH
REF_FRAME      = TEME
TIME_SYSTEM    = UTC
MEAN_ELEMENT_THEORY = SGP/SGP4

EPOCH          = 2026-01-04T05:48:26.356608
MEAN_MOTION    = 15.09687675
ECCENTRICITY   = .00296229
INCLINATION    = 81.1704
RA_OF_ASC_NODE = 290.2058
ARG_OF_PERICENTER = 175.9343
MEAN_ANOMALY   = 184.2129

EPHEMERIS_TYPE = 0
CLASSIFICATION_TYPE = U
NORAD_CAT_ID   = 13154
ELEMENT_SET_NO = 999
REV_AT_EPOCH   = 37191
BSTAR          = .26363429E-3
MEAN_MOTION_DOT = .4312E-4
MEAN_MOTION_DDOT = 0

